ORBCOMM FM36            
1 25984U 99065E   26065.78235462  .00001499  00000+0  52725-3 0  9999
2 25984  45.0389 285.6557 0002576 171.3050 188.7844 14.38974069372232
ORBCOMM FM35            
1 25985U 99065F   26065.33222425  .00001402  00000+0  50724-3 0  9997
2 25985  45.0396 294.9866 0003392 279.0511  80.9954 14.37865835372506
ORBCOMM FM34            
1 25986U 99065G   26065.78923027  .00001161  00000+0  42885-3 0  9994
2 25986  45.0391 293.3308 0003174 223.9821 136.0775 14.37778861372681
ORBCOMM FM38            
1 33060U 08031A   26065.49036829  .00002719  00000+0  35968-3 0  9996
2 33060  48.4386 143.9413 0003804  93.5660 266.5691 14.82717368953656
ORBCOMM FM41            
1 33061U 08031B   26065.45572767  .00002546  00000+0  34224-3 0  9991
2 33061  48.4423 152.8330 0003073  72.6188  31.6399 14.82251487953120
ORBCOMM FM29            
1 33062U 08031C   26065.53436534  .00002913  00000+0  38610-3 0  9993
2 33062  48.4375 159.8879 0004695  74.1990 299.4818 14.82427202953053
ORBCOMM FM39            
1 33063U 08031D   26065.49556625  .00002727  00000+0  37721-3 0  9998
2 33063  48.4387 187.3755 0005822  40.5717 319.5632 14.80807643952655
ORBCOMM FM37            
1 33064U 08031E   26065.79330887  .00002576  00000+0  35621-3 0  9991
2 33064  48.4380 174.0735 0004311  63.1385  76.7122 14.81002383952952
ORBCOMM FM40            
1 33065U 08031F   26065.61311760  .00003264  00000+0  41729-3 0  9993
2 33065  48.4399 154.2407 0005161  81.7426  61.5334 14.83640768953107
VESSELSAT 1             
1 37840U 11058C   26065.32362605  .00000415  00000+0  81548-4 0  9992
2 37840  19.9627 307.6204 0013648 189.8936 170.1201 14.11419737743381
ORBCOMM FM109           
1 40086U 14040A   26065.77382086  .00000934  00000+0  23438-3 0  9995
2 40086  47.0020 215.6443 0001244 132.5143 227.5848 14.58718312619392
ORBCOMM FM107           
1 40087U 14040B   26065.78861131  .00001129  00000+0  27521-3 0  9994
2 40087  47.0037 216.4267 0000478   7.2233 352.8660 14.58802906619476
ORBCOMM FM106           
1 40088U 14040C   26065.07137526  .00001404  00000+0  26095-3 0  9992
2 40088  47.0615  20.6705 0016470 207.2908 152.7119 14.70291899622007
ORBCOMM FM111           
1 40089U 14040D   26065.54900984  .00004347  00000+0  48457-3 0  9996
2 40089  46.9998 191.9963 0028119   8.4888 351.6480 14.88325727629284
ORBCOMM FM104           
1 40090U 14040E   26065.51949889  .00000805  00000+0  21404-3 0  9990
2 40090  47.0039 254.4970 0016361 322.6573  37.3174 14.57161453618876
ORBCOMM FM103           
1 40091U 14040F   26065.77619273  .00001036  00000+0  25605-3 0  9994
2 40091  47.0039 217.2046 0001064  29.6919 330.4027 14.58704952602437
