[{"OBJECT_NAME":"ORBCOMM FM36","OBJECT_ID":"1999-065E","EPOCH":"2026-03-06T18:46:35.439168","MEAN_MOTION":14.38974069,"ECCENTRICITY":0.0002576,"INCLINATION":45.0389,"RA_OF_ASC_NODE":285.6557,"ARG_OF_PERICENTER":171.305,"MEAN_ANOMALY":188.7844,"EPHEMERIS_TYPE":0,"CLASSIFICATION_TYPE":"U","NORAD_CAT_ID":25984,"ELEMENT_SET_NO":999,"REV_AT_EPOCH":37223,"BSTAR":0.00052725,"MEAN_MOTION_DOT":1.499e-5,"MEAN_MOTION_DDOT":0},{"OBJECT_NAME":"ORBCOMM FM35","OBJECT_ID":"1999-065F","EPOCH":"2026-03-06T07:58:24.175200","MEAN_MOTION":14.37865835,"ECCENTRICITY":0.00033925,"INCLINATION":45.0396,"RA_OF_ASC_NODE":294.9866,"ARG_OF_PERICENTER":279.0511,"MEAN_ANOMALY":80.9954,"EPHEMERIS_TYPE":0,"CLASSIFICATION_TYPE":"U","NORAD_CAT_ID":25985,"ELEMENT_SET_NO":999,"REV_AT_EPOCH":37250,"BSTAR":0.00050723669,"MEAN_MOTION_DOT":1.402e-5,"MEAN_MOTION_DDOT":0},{"OBJECT_NAME":"ORBCOMM FM34","OBJECT_ID":"1999-065G","EPOCH":"2026-03-06T18:56:29.495328","MEAN_MOTION":14.37778861,"ECCENTRICITY":0.0003174,"INCLINATION":45.0391,"RA_OF_ASC_NODE":293.3308,"ARG_OF_PERICENTER":223.9821,"MEAN_ANOMALY":136.0775,"EPHEMERIS_TYPE":0,"CLASSIFICATION_TYPE":"U","NORAD_CAT_ID":25986,"ELEMENT_SET_NO":999,"REV_AT_EPOCH":37268,"BSTAR":0.00042885,"MEAN_MOTION_DOT":1.161e-5,"MEAN_MOTION_DDOT":0},{"OBJECT_NAME":"ORBCOMM FM38","OBJECT_ID":"2008-031A","EPOCH":"2026-03-06T11:46:07.820256","MEAN_MOTION":14.82717368,"ECCENTRICITY":0.00038043,"INCLINATION":48.4386,"RA_OF_ASC_NODE":143.9413,"ARG_OF_PERICENTER":93.566,"MEAN_ANOMALY":266.5691,"EPHEMERIS_TYPE":0,"CLASSIFICATION_TYPE":"U","NORAD_CAT_ID":33060,"ELEMENT_SET_NO":999,"REV_AT_EPOCH":95365,"BSTAR":0.00035967567,"MEAN_MOTION_DOT":2.719e-5,"MEAN_MOTION_DDOT":0},{"OBJECT_NAME":"ORBCOMM FM41","OBJECT_ID":"2008-031B","EPOCH":"2026-03-06T10:56:14.870688","MEAN_MOTION":14.82251487,"ECCENTRICITY":0.00030737,"INCLINATION":48.4423,"RA_OF_ASC_NODE":152.833,"ARG_OF_PERICENTER":72.6188,"MEAN_ANOMALY":31.6399,"EPHEMERIS_TYPE":0,"CLASSIFICATION_TYPE":"U","NORAD_CAT_ID":33061,"ELEMENT_SET_NO":999,"REV_AT_EPOCH":95312,"BSTAR":0.00034223847,"MEAN_MOTION_DOT":2.546e-5,"MEAN_MOTION_DDOT":0},{"OBJECT_NAME":"ORBCOMM FM29","OBJECT_ID":"2008-031C","EPOCH":"2026-03-06T12:49:29.165376","MEAN_MOTION":14.82427202,"ECCENTRICITY":0.00046956,"INCLINATION":48.4375,"RA_OF_ASC_NODE":159.8879,"ARG_OF_PERICENTER":74.199,"MEAN_ANOMALY":299.4818,"EPHEMERIS_TYPE":0,"CLASSIFICATION_TYPE":"U","NORAD_CAT_ID":33062,"ELEMENT_SET_NO":999,"REV_AT_EPOCH":95305,"BSTAR":0.00038610403,"MEAN_MOTION_DOT":2.913e-5,"MEAN_MOTION_DDOT":0},{"OBJECT_NAME":"ORBCOMM FM39","OBJECT_ID":"2008-031D","EPOCH":"2026-03-06T11:53:36.924000","MEAN_MOTION":14.80807643,"ECCENTRICITY":0.00058228,"INCLINATION":48.4387,"RA_OF_ASC_NODE":187.3755,"ARG_OF_PERICENTER":40.5717,"MEAN_ANOMALY":319.5632,"EPHEMERIS_TYPE":0,"CLASSIFICATION_TYPE":"U","NORAD_CAT_ID":33063,"ELEMENT_SET_NO":999,"REV_AT_EPOCH":95265,"BSTAR":0.00037720756,"MEAN_MOTION_DOT":2.727e-5,"MEAN_MOTION_DDOT":0},{"OBJECT_NAME":"ORBCOMM FM37","OBJECT_ID":"2008-031E","EPOCH":"2026-03-06T19:02:21.886368","MEAN_MOTION":14.81002383,"ECCENTRICITY":0.0004311,"INCLINATION":48.438,"RA_OF_ASC_NODE":174.0735,"ARG_OF_PERICENTER":63.1385,"MEAN_ANOMALY":76.7122,"EPHEMERIS_TYPE":0,"CLASSIFICATION_TYPE":"U","NORAD_CAT_ID":33064,"ELEMENT_SET_NO":999,"REV_AT_EPOCH":95295,"BSTAR":0.00035621,"MEAN_MOTION_DOT":2.576e-5,"MEAN_MOTION_DDOT":0},{"OBJECT_NAME":"ORBCOMM FM40","OBJECT_ID":"2008-031F","EPOCH":"2026-03-06T14:42:53.360640","MEAN_MOTION":14.83640768,"ECCENTRICITY":0.00051616,"INCLINATION":48.4399,"RA_OF_ASC_NODE":154.2407,"ARG_OF_PERICENTER":81.7426,"MEAN_ANOMALY":61.5334,"EPHEMERIS_TYPE":0,"CLASSIFICATION_TYPE":"U","NORAD_CAT_ID":33065,"ELEMENT_SET_NO":999,"REV_AT_EPOCH":95310,"BSTAR":0.00041729171,"MEAN_MOTION_DOT":3.264e-5,"MEAN_MOTION_DDOT":0},{"OBJECT_NAME":"VESSELSAT 1","OBJECT_ID":"2011-058C","EPOCH":"2026-03-06T07:46:01.290720","MEAN_MOTION":14.11419737,"ECCENTRICITY":0.00136482,"INCLINATION":19.9627,"RA_OF_ASC_NODE":307.6204,"ARG_OF_PERICENTER":189.8936,"MEAN_ANOMALY":170.1201,"EPHEMERIS_TYPE":0,"CLASSIFICATION_TYPE":"U","NORAD_CAT_ID":37840,"ELEMENT_SET_NO":999,"REV_AT_EPOCH":74338,"BSTAR":8.1547969e-5,"MEAN_MOTION_DOT":4.15e-6,"MEAN_MOTION_DDOT":0},{"OBJECT_NAME":"ORBCOMM FM109","OBJECT_ID":"2014-040A","EPOCH":"2026-03-06T18:34:18.122304","MEAN_MOTION":14.58718312,"ECCENTRICITY":0.0001244,"INCLINATION":47.002,"RA_OF_ASC_NODE":215.6443,"ARG_OF_PERICENTER":132.5143,"MEAN_ANOMALY":227.5848,"EPHEMERIS_TYPE":0,"CLASSIFICATION_TYPE":"U","NORAD_CAT_ID":40086,"ELEMENT_SET_NO":999,"REV_AT_EPOCH":61939,"BSTAR":0.00023438,"MEAN_MOTION_DOT":9.34e-6,"MEAN_MOTION_DDOT":0},{"OBJECT_NAME":"ORBCOMM FM107","OBJECT_ID":"2014-040B","EPOCH":"2026-03-06T18:55:36.017184","MEAN_MOTION":14.58802906,"ECCENTRICITY":4.78e-5,"INCLINATION":47.0037,"RA_OF_ASC_NODE":216.4267,"ARG_OF_PERICENTER":7.2233,"MEAN_ANOMALY":352.866,"EPHEMERIS_TYPE":0,"CLASSIFICATION_TYPE":"U","NORAD_CAT_ID":40087,"ELEMENT_SET_NO":999,"REV_AT_EPOCH":61947,"BSTAR":0.00027521,"MEAN_MOTION_DOT":1.129e-5,"MEAN_MOTION_DDOT":0},{"OBJECT_NAME":"ORBCOMM FM106","OBJECT_ID":"2014-040C","EPOCH":"2026-03-06T01:42:46.822464","MEAN_MOTION":14.70291899,"ECCENTRICITY":0.001647,"INCLINATION":47.0615,"RA_OF_ASC_NODE":20.6705,"ARG_OF_PERICENTER":207.2908,"MEAN_ANOMALY":152.7119,"EPHEMERIS_TYPE":0,"CLASSIFICATION_TYPE":"U","NORAD_CAT_ID":40088,"ELEMENT_SET_NO":999,"REV_AT_EPOCH":62200,"BSTAR":0.00026095095,"MEAN_MOTION_DOT":1.404e-5,"MEAN_MOTION_DDOT":0},{"OBJECT_NAME":"ORBCOMM FM111","OBJECT_ID":"2014-040D","EPOCH":"2026-03-06T13:10:34.450176","MEAN_MOTION":14.88325727,"ECCENTRICITY":0.00281197,"INCLINATION":46.9998,"RA_OF_ASC_NODE":191.9963,"ARG_OF_PERICENTER":8.4888,"MEAN_ANOMALY":351.648,"EPHEMERIS_TYPE":0,"CLASSIFICATION_TYPE":"U","NORAD_CAT_ID":40089,"ELEMENT_SET_NO":999,"REV_AT_EPOCH":62928,"BSTAR":0.00048456744,"MEAN_MOTION_DOT":4.347e-5,"MEAN_MOTION_DDOT":0},{"OBJECT_NAME":"ORBCOMM FM104","OBJECT_ID":"2014-040E","EPOCH":"2026-03-06T12:28:04.704096","MEAN_MOTION":14.57161453,"ECCENTRICITY":0.00163613,"INCLINATION":47.0039,"RA_OF_ASC_NODE":254.497,"ARG_OF_PERICENTER":322.6573,"MEAN_ANOMALY":37.3174,"EPHEMERIS_TYPE":0,"CLASSIFICATION_TYPE":"U","NORAD_CAT_ID":40090,"ELEMENT_SET_NO":999,"REV_AT_EPOCH":61887,"BSTAR":0.00021403529,"MEAN_MOTION_DOT":8.05e-6,"MEAN_MOTION_DDOT":0},{"OBJECT_NAME":"ORBCOMM FM103","OBJECT_ID":"2014-040F","EPOCH":"2026-03-06T18:37:43.051872","MEAN_MOTION":14.58704952,"ECCENTRICITY":0.0001064,"INCLINATION":47.0039,"RA_OF_ASC_NODE":217.2046,"ARG_OF_PERICENTER":29.6919,"MEAN_ANOMALY":330.4027,"EPHEMERIS_TYPE":0,"CLASSIFICATION_TYPE":"U","NORAD_CAT_ID":40091,"ELEMENT_SET_NO":999,"REV_AT_EPOCH":60243,"BSTAR":0.00025605,"MEAN_MOTION_DOT":1.036e-5,"MEAN_MOTION_DDOT":0}]
